CZ-6A R/B               
1 68197U 26051B   26094.90776170  .00001262  00000+0  16899-3 0  9999
2 68197 142.0304 345.0869 0187371 240.0067 118.1948 14.56385141  2987
2026-052A               
1 68198U 26052A   26094.96648220  .00010057  00000+0  61996-3 0  9991
2 68198  97.5352 170.8976 0013690 193.7572 166.3286 15.10071820  2993
YUXING-3 06             
1 68199U 26052B   26094.96446670  .00007912  00000+0  48712-3 0  9994
2 68199  97.5354 170.8996 0012678 194.9590 165.1266 15.10200939  2996
2026-052C               
1 68200U 26052C   26094.96280462  .00007025  00000+0  43170-3 0  9990
2 68200  97.5351 170.9021 0012387 197.3635 162.7173 15.10312288  2980
2026-052D               
1 68201U 26052D   26094.96030672  .00009960  00000+0  60603-3 0  9997
2 68201  97.5357 170.9037 0011647 193.8280 166.2632 15.10568989  2990
2026-052E               
1 68202U 26052E   26094.49659368  .00013241  00000+0  80433-3 0  9995
2 68202  97.5348 170.4486 0011250 200.0561 160.0228 15.10559593  2924
2026-052F               
1 68203U 26052F   26094.95697208  .00009888  00000+0  59765-3 0  9998
2 68203  97.5352 170.9128 0010631 190.3620 169.7392 15.10825991  2990
2026-052G               
1 68204U 26052G   26094.95634345  .00010061  00000+0  60727-3 0  9997
2 68204  97.5360 170.9093 0010282 192.8006 167.2964 15.10872275  2993
KZ-11 R/B               
1 68205U 26052H   26094.92740531  .00025884  20082-5  38971-3 0  9993
2 68205  97.3397 169.5648 0543750 308.9123  46.4774 14.67678511  2909
2026-052J               
1 68206U 26052J   26094.91818539  .00076957  28301-5  11204-2 0  9995
2 68206  97.3394 169.5749 0537461 308.8993  46.5429 14.69369647  2902
STARLINK-36986          
1 68207U 26053A   26094.87697540  .00111377  00000+0  57582-3 0  9995
2 68207  97.2842 330.4686 0001322  85.1605 274.9814 15.80777470  4195
STARLINK-37009          
1 68208U 26053B   26094.87621270 -.00037045  00000+0 -19385-3 0  9993
2 68208  97.2840 330.4693 0001508  83.7875 276.3565 15.80773245  4196
STARLINK-36948          
1 68209U 26053C   26094.87547143  .00128896  00000+0  66447-3 0  9994
2 68209  97.2840 330.4704 0001184 109.9013 250.2383 15.80792963  4170
STARLINK-37119          
1 68210U 26053D   26094.87471889  .00135700  00000+0  69872-3 0  9996
2 68210  97.2845 330.4707 0000983  74.2726 285.8650 15.80800650  4197
STARLINK-37120          
1 68211U 26053E   26094.87396856  .00094126  00000+0  48771-3 0  9998
2 68211  97.2842 330.4713 0001178  57.9044 302.2338 15.80777743  4171
STARLINK-37117          
1 68212U 26053F   26094.80990906  .00018003  00000+0  94700-4 0  9992
2 68212  97.2828 330.4061 0002542 130.6032 229.5458 15.80774005  4187
