[{"OBJECT_NAME":"CZ-6A R/B","OBJECT_ID":"2026-051B","EPOCH":"2026-04-04T21:47:10.610880","MEAN_MOTION":14.56385141,"ECCENTRICITY":0.01873718,"INCLINATION":142.0304,"RA_OF_ASC_NODE":345.0869,"ARG_OF_PERICENTER":240.0067,"MEAN_ANOMALY":118.1948,"EPHEMERIS_TYPE":0,"CLASSIFICATION_TYPE":"U","NORAD_CAT_ID":68197,"ELEMENT_SET_NO":999,"REV_AT_EPOCH":298,"BSTAR":0.00016898595,"MEAN_MOTION_DOT":1.262e-5,"MEAN_MOTION_DDOT":0},{"OBJECT_NAME":"2026-052A","OBJECT_ID":"2026-052A","EPOCH":"2026-04-04T23:11:44.062080","MEAN_MOTION":15.1007182,"ECCENTRICITY":0.00136902,"INCLINATION":97.5352,"RA_OF_ASC_NODE":170.8976,"ARG_OF_PERICENTER":193.7572,"MEAN_ANOMALY":166.3286,"EPHEMERIS_TYPE":0,"CLASSIFICATION_TYPE":"U","NORAD_CAT_ID":68198,"ELEMENT_SET_NO":999,"REV_AT_EPOCH":299,"BSTAR":0.00061996134,"MEAN_MOTION_DOT":0.00010057,"MEAN_MOTION_DDOT":0},{"OBJECT_NAME":"YUXING-3 06","OBJECT_ID":"2026-052B","EPOCH":"2026-04-04T23:08:49.922880","MEAN_MOTION":15.10200939,"ECCENTRICITY":0.00126787,"INCLINATION":97.5354,"RA_OF_ASC_NODE":170.8996,"ARG_OF_PERICENTER":194.959,"MEAN_ANOMALY":165.1266,"EPHEMERIS_TYPE":0,"CLASSIFICATION_TYPE":"U","NORAD_CAT_ID":68199,"ELEMENT_SET_NO":999,"REV_AT_EPOCH":299,"BSTAR":0.0004871225,"MEAN_MOTION_DOT":7.912e-5,"MEAN_MOTION_DDOT":0},{"OBJECT_NAME":"2026-052C","OBJECT_ID":"2026-052C","EPOCH":"2026-04-04T23:06:26.319168","MEAN_MOTION":15.10312288,"ECCENTRICITY":0.00123878,"INCLINATION":97.5351,"RA_OF_ASC_NODE":170.9021,"ARG_OF_PERICENTER":197.3635,"MEAN_ANOMALY":162.7173,"EPHEMERIS_TYPE":0,"CLASSIFICATION_TYPE":"U","NORAD_CAT_ID":68200,"ELEMENT_SET_NO":999,"REV_AT_EPOCH":298,"BSTAR":0.00043169584,"MEAN_MOTION_DOT":7.025e-5,"MEAN_MOTION_DDOT":0},{"OBJECT_NAME":"2026-052D","OBJECT_ID":"2026-052D","EPOCH":"2026-04-04T23:02:50.500608","MEAN_MOTION":15.10568989,"ECCENTRICITY":0.00116475,"INCLINATION":97.5357,"RA_OF_ASC_NODE":170.9037,"ARG_OF_PERICENTER":193.828,"MEAN_ANOMALY":166.2632,"EPHEMERIS_TYPE":0,"CLASSIFICATION_TYPE":"U","NORAD_CAT_ID":68201,"ELEMENT_SET_NO":999,"REV_AT_EPOCH":299,"BSTAR":0.00060602762,"MEAN_MOTION_DOT":9.96e-5,"MEAN_MOTION_DDOT":0},{"OBJECT_NAME":"2026-052E","OBJECT_ID":"2026-052E","EPOCH":"2026-04-04T11:55:05.693952","MEAN_MOTION":15.10559593,"ECCENTRICITY":0.00112507,"INCLINATION":97.5348,"RA_OF_ASC_NODE":170.4486,"ARG_OF_PERICENTER":200.0561,"MEAN_ANOMALY":160.0228,"EPHEMERIS_TYPE":0,"CLASSIFICATION_TYPE":"U","NORAD_CAT_ID":68202,"ELEMENT_SET_NO":999,"REV_AT_EPOCH":292,"BSTAR":0.00080432902,"MEAN_MOTION_DOT":0.00013241,"MEAN_MOTION_DDOT":0},{"OBJECT_NAME":"2026-052F","OBJECT_ID":"2026-052F","EPOCH":"2026-04-04T22:58:02.387712","MEAN_MOTION":15.10825991,"ECCENTRICITY":0.00106314,"INCLINATION":97.5352,"RA_OF_ASC_NODE":170.9128,"ARG_OF_PERICENTER":190.362,"MEAN_ANOMALY":169.7392,"EPHEMERIS_TYPE":0,"CLASSIFICATION_TYPE":"U","NORAD_CAT_ID":68203,"ELEMENT_SET_NO":999,"REV_AT_EPOCH":299,"BSTAR":0.00059764596,"MEAN_MOTION_DOT":9.888e-5,"MEAN_MOTION_DDOT":0},{"OBJECT_NAME":"2026-052G","OBJECT_ID":"2026-052G","EPOCH":"2026-04-04T22:57:08.074080","MEAN_MOTION":15.10872275,"ECCENTRICITY":0.00102829,"INCLINATION":97.536,"RA_OF_ASC_NODE":170.9093,"ARG_OF_PERICENTER":192.8006,"MEAN_ANOMALY":167.2964,"EPHEMERIS_TYPE":0,"CLASSIFICATION_TYPE":"U","NORAD_CAT_ID":68204,"ELEMENT_SET_NO":999,"REV_AT_EPOCH":299,"BSTAR":0.00060727338,"MEAN_MOTION_DOT":0.00010061,"MEAN_MOTION_DDOT":0},{"OBJECT_NAME":"KZ-11 R/B","OBJECT_ID":"2026-052H","EPOCH":"2026-04-04T22:15:27.818784","MEAN_MOTION":14.67678511,"ECCENTRICITY":0.05437505,"INCLINATION":97.3397,"RA_OF_ASC_NODE":169.5648,"ARG_OF_PERICENTER":308.9123,"MEAN_ANOMALY":46.4774,"EPHEMERIS_TYPE":0,"CLASSIFICATION_TYPE":"U","NORAD_CAT_ID":68205,"ELEMENT_SET_NO":999,"REV_AT_EPOCH":290,"BSTAR":0.00038971188,"MEAN_MOTION_DOT":0.00025884,"MEAN_MOTION_DDOT":2.008245e-6},{"OBJECT_NAME":"2026-052J","OBJECT_ID":"2026-052J","EPOCH":"2026-04-04T22:02:11.217696","MEAN_MOTION":14.69369647,"ECCENTRICITY":0.05374617,"INCLINATION":97.3394,"RA_OF_ASC_NODE":169.5749,"ARG_OF_PERICENTER":308.8993,"MEAN_ANOMALY":46.5429,"EPHEMERIS_TYPE":0,"CLASSIFICATION_TYPE":"U","NORAD_CAT_ID":68206,"ELEMENT_SET_NO":999,"REV_AT_EPOCH":290,"BSTAR":0.0011204467,"MEAN_MOTION_DOT":0.00076957,"MEAN_MOTION_DDOT":2.830126e-6},{"OBJECT_NAME":"STARLINK-36986","OBJECT_ID":"2026-053A","EPOCH":"2026-04-04T21:02:50.674560","MEAN_MOTION":15.8077747,"ECCENTRICITY":0.00013226,"INCLINATION":97.2842,"RA_OF_ASC_NODE":330.4686,"ARG_OF_PERICENTER":85.1605,"MEAN_ANOMALY":274.9814,"EPHEMERIS_TYPE":0,"CLASSIFICATION_TYPE":"U","NORAD_CAT_ID":68207,"ELEMENT_SET_NO":999,"REV_AT_EPOCH":419,"BSTAR":0.00057582162,"MEAN_MOTION_DOT":0.00111377,"MEAN_MOTION_DDOT":0},{"OBJECT_NAME":"STARLINK-37009","OBJECT_ID":"2026-053B","EPOCH":"2026-04-04T21:01:44.777280","MEAN_MOTION":15.80773245,"ECCENTRICITY":0.00015087,"INCLINATION":97.284,"RA_OF_ASC_NODE":330.4693,"ARG_OF_PERICENTER":83.7875,"MEAN_ANOMALY":276.3565,"EPHEMERIS_TYPE":0,"CLASSIFICATION_TYPE":"U","NORAD_CAT_ID":68208,"ELEMENT_SET_NO":999,"REV_AT_EPOCH":419,"BSTAR":-0.00019384926,"MEAN_MOTION_DOT":-0.00037045,"MEAN_MOTION_DDOT":0},{"OBJECT_NAME":"STARLINK-36948","OBJECT_ID":"2026-053C","EPOCH":"2026-04-04T21:00:40.731552","MEAN_MOTION":15.80792963,"ECCENTRICITY":0.00011847,"INCLINATION":97.284,"RA_OF_ASC_NODE":330.4704,"ARG_OF_PERICENTER":109.9013,"MEAN_ANOMALY":250.2383,"EPHEMERIS_TYPE":0,"CLASSIFICATION_TYPE":"U","NORAD_CAT_ID":68209,"ELEMENT_SET_NO":999,"REV_AT_EPOCH":417,"BSTAR":0.00066446941,"MEAN_MOTION_DOT":0.00128896,"MEAN_MOTION_DDOT":0},{"OBJECT_NAME":"STARLINK-37119","OBJECT_ID":"2026-053D","EPOCH":"2026-04-04T20:59:35.712096","MEAN_MOTION":15.8080065,"ECCENTRICITY":9.832e-5,"INCLINATION":97.2845,"RA_OF_ASC_NODE":330.4707,"ARG_OF_PERICENTER":74.2726,"MEAN_ANOMALY":285.865,"EPHEMERIS_TYPE":0,"CLASSIFICATION_TYPE":"U","NORAD_CAT_ID":68210,"ELEMENT_SET_NO":999,"REV_AT_EPOCH":419,"BSTAR":0.00069871965,"MEAN_MOTION_DOT":0.001357,"MEAN_MOTION_DDOT":0},{"OBJECT_NAME":"STARLINK-37120","OBJECT_ID":"2026-053E","EPOCH":"2026-04-04T20:58:30.883584","MEAN_MOTION":15.80777743,"ECCENTRICITY":0.00011789,"INCLINATION":97.2842,"RA_OF_ASC_NODE":330.4713,"ARG_OF_PERICENTER":57.9044,"MEAN_ANOMALY":302.2338,"EPHEMERIS_TYPE":0,"CLASSIFICATION_TYPE":"U","NORAD_CAT_ID":68211,"ELEMENT_SET_NO":999,"REV_AT_EPOCH":417,"BSTAR":0.00048770981,"MEAN_MOTION_DOT":0.00094126,"MEAN_MOTION_DDOT":0},{"OBJECT_NAME":"STARLINK-37117","OBJECT_ID":"2026-053F","EPOCH":"2026-04-04T19:26:16.142784","MEAN_MOTION":15.80774005,"ECCENTRICITY":0.00025425,"INCLINATION":97.2828,"RA_OF_ASC_NODE":330.4061,"ARG_OF_PERICENTER":130.6032,"MEAN_ANOMALY":229.5458,"EPHEMERIS_TYPE":0,"CLASSIFICATION_TYPE":"U","NORAD_CAT_ID":68212,"ELEMENT_SET_NO":999,"REV_AT_EPOCH":418,"BSTAR":9.4700254e-5,"MEAN_MOTION_DOT":0.00018003,"MEAN_MOTION_DDOT":0}]
